{
 "type": "FeatureCollection",
 "metadata": {
  "name": "NZ Regional Council Areas (simplified)",
  "source": "Hand-coded simplified polygons. For production-quality boundaries, download from Stats NZ DataFinder (layer 111182, Regional Council 2023 generalised).",
  "crs": "WGS84 / EPSG:4326"
 },
 "features": [
  {
   "type": "Feature",
   "properties": {
    "region_code": "NTL",
    "region_name": "Northland",
    "island": "North",
    "centroid_lat": -35.6,
    "centroid_lon": 173.9
   },
   "geometry": {
    "type": "Polygon",
    "coordinates": [
     [
      [
       172.95,
       -34.55
      ],
      [
       174.45,
       -34.4
      ],
      [
       174.85,
       -35.45
      ],
      [
       174.3,
       -36.45
      ],
      [
       173.9,
       -36.45
      ],
      [
       173.4,
       -36.2
      ],
      [
       172.95,
       -34.55
      ]
     ]
    ]
   }
  },
  {
   "type": "Feature",
   "properties": {
    "region_code": "AUK",
    "region_name": "Auckland",
    "island": "North",
    "centroid_lat": -36.85,
    "centroid_lon": 174.76
   },
   "geometry": {
    "type": "Polygon",
    "coordinates": [
     [
      [
       174.3,
       -36.4
      ],
      [
       175.3,
       -36.3
      ],
      [
       175.4,
       -36.7
      ],
      [
       175.05,
       -37.2
      ],
      [
       174.65,
       -37.25
      ],
      [
       174.3,
       -37.05
      ],
      [
       174.3,
       -36.4
      ]
     ]
    ]
   }
  },
  {
   "type": "Feature",
   "properties": {
    "region_code": "WKO",
    "region_name": "Waikato",
    "island": "North",
    "centroid_lat": -37.78,
    "centroid_lon": 175.28
   },
   "geometry": {
    "type": "Polygon",
    "coordinates": [
     [
      [
       174.55,
       -36.95
      ],
      [
       175.5,
       -36.85
      ],
      [
       176.4,
       -37.1
      ],
      [
       176.5,
       -38.45
      ],
      [
       175.4,
       -38.8
      ],
      [
       174.65,
       -38.2
      ],
      [
       174.55,
       -36.95
      ]
     ]
    ]
   }
  },
  {
   "type": "Feature",
   "properties": {
    "region_code": "BOP",
    "region_name": "Bay of Plenty",
    "island": "North",
    "centroid_lat": -37.93,
    "centroid_lon": 176.95
   },
   "geometry": {
    "type": "Polygon",
    "coordinates": [
     [
      [
       175.8,
       -37.2
      ],
      [
       177.45,
       -37.3
      ],
      [
       178.05,
       -37.95
      ],
      [
       177.4,
       -38.7
      ],
      [
       176.3,
       -38.7
      ],
      [
       175.8,
       -37.95
      ],
      [
       175.8,
       -37.2
      ]
     ]
    ]
   }
  },
  {
   "type": "Feature",
   "properties": {
    "region_code": "GIS",
    "region_name": "Gisborne",
    "island": "North",
    "centroid_lat": -38.5,
    "centroid_lon": 177.9
   },
   "geometry": {
    "type": "Polygon",
    "coordinates": [
     [
      [
       177.4,
       -37.5
      ],
      [
       178.65,
       -37.85
      ],
      [
       178.55,
       -38.85
      ],
      [
       177.55,
       -39.0
      ],
      [
       177.2,
       -38.5
      ],
      [
       177.4,
       -37.5
      ]
     ]
    ]
   }
  },
  {
   "type": "Feature",
   "properties": {
    "region_code": "HKB",
    "region_name": "Hawke's Bay",
    "island": "North",
    "centroid_lat": -39.5,
    "centroid_lon": 176.85
   },
   "geometry": {
    "type": "Polygon",
    "coordinates": [
     [
      [
       175.95,
       -38.8
      ],
      [
       177.3,
       -38.95
      ],
      [
       178.05,
       -39.55
      ],
      [
       177.5,
       -40.4
      ],
      [
       176.2,
       -40.45
      ],
      [
       175.95,
       -39.65
      ],
      [
       175.95,
       -38.8
      ]
     ]
    ]
   }
  },
  {
   "type": "Feature",
   "properties": {
    "region_code": "TKI",
    "region_name": "Taranaki",
    "island": "North",
    "centroid_lat": -39.34,
    "centroid_lon": 174.14
   },
   "geometry": {
    "type": "Polygon",
    "coordinates": [
     [
      [
       173.55,
       -38.85
      ],
      [
       175.2,
       -38.95
      ],
      [
       175.1,
       -39.85
      ],
      [
       174.1,
       -39.95
      ],
      [
       173.65,
       -39.5
      ],
      [
       173.55,
       -38.85
      ]
     ]
    ]
   }
  },
  {
   "type": "Feature",
   "properties": {
    "region_code": "MWT",
    "region_name": "Manawatū-Whanganui",
    "island": "North",
    "centroid_lat": -39.8,
    "centroid_lon": 175.5
   },
   "geometry": {
    "type": "Polygon",
    "coordinates": [
     [
      [
       174.65,
       -38.85
      ],
      [
       175.85,
       -39.2
      ],
      [
       176.45,
       -39.95
      ],
      [
       176.2,
       -40.9
      ],
      [
       174.8,
       -40.8
      ],
      [
       174.55,
       -39.7
      ],
      [
       174.65,
       -38.85
      ]
     ]
    ]
   }
  },
  {
   "type": "Feature",
   "properties": {
    "region_code": "WGN",
    "region_name": "Wellington",
    "island": "North",
    "centroid_lat": -41.1,
    "centroid_lon": 175.3
   },
   "geometry": {
    "type": "Polygon",
    "coordinates": [
     [
      [
       174.65,
       -40.65
      ],
      [
       176.15,
       -40.75
      ],
      [
       176.0,
       -41.55
      ],
      [
       174.85,
       -41.6
      ],
      [
       174.65,
       -41.1
      ],
      [
       174.65,
       -40.65
      ]
     ]
    ]
   }
  },
  {
   "type": "Feature",
   "properties": {
    "region_code": "TAS",
    "region_name": "Tasman",
    "island": "South",
    "centroid_lat": -41.4,
    "centroid_lon": 172.85
   },
   "geometry": {
    "type": "Polygon",
    "coordinates": [
     [
      [
       171.85,
       -40.45
      ],
      [
       173.45,
       -40.5
      ],
      [
       173.65,
       -41.45
      ],
      [
       172.8,
       -41.85
      ],
      [
       171.95,
       -41.6
      ],
      [
       171.85,
       -40.45
      ]
     ]
    ]
   }
  },
  {
   "type": "Feature",
   "properties": {
    "region_code": "NSN",
    "region_name": "Nelson",
    "island": "South",
    "centroid_lat": -41.27,
    "centroid_lon": 173.28
   },
   "geometry": {
    "type": "Polygon",
    "coordinates": [
     [
      [
       173.13,
       -41.1
      ],
      [
       173.45,
       -41.15
      ],
      [
       173.45,
       -41.4
      ],
      [
       173.13,
       -41.4
      ],
      [
       173.13,
       -41.1
      ]
     ]
    ]
   }
  },
  {
   "type": "Feature",
   "properties": {
    "region_code": "MBH",
    "region_name": "Marlborough",
    "island": "South",
    "centroid_lat": -41.7,
    "centroid_lon": 173.85
   },
   "geometry": {
    "type": "Polygon",
    "coordinates": [
     [
      [
       173.25,
       -41.15
      ],
      [
       174.55,
       -41.2
      ],
      [
       174.5,
       -41.9
      ],
      [
       173.65,
       -42.25
      ],
      [
       173.2,
       -42.05
      ],
      [
       173.25,
       -41.15
      ]
     ]
    ]
   }
  },
  {
   "type": "Feature",
   "properties": {
    "region_code": "WTC",
    "region_name": "West Coast",
    "island": "South",
    "centroid_lat": -42.8,
    "centroid_lon": 171.3
   },
   "geometry": {
    "type": "Polygon",
    "coordinates": [
     [
      [
       169.55,
       -41.45
      ],
      [
       172.25,
       -41.5
      ],
      [
       172.3,
       -42.85
      ],
      [
       170.45,
       -44.25
      ],
      [
       169.55,
       -43.6
      ],
      [
       169.55,
       -41.45
      ]
     ]
    ]
   }
  },
  {
   "type": "Feature",
   "properties": {
    "region_code": "CAN",
    "region_name": "Canterbury",
    "island": "South",
    "centroid_lat": -43.7,
    "centroid_lon": 171.8
   },
   "geometry": {
    "type": "Polygon",
    "coordinates": [
     [
      [
       170.45,
       -42.25
      ],
      [
       173.95,
       -42.3
      ],
      [
       174.05,
       -42.85
      ],
      [
       173.05,
       -44.55
      ],
      [
       171.2,
       -45.05
      ],
      [
       170.05,
       -44.1
      ],
      [
       170.45,
       -42.25
      ]
     ]
    ]
   }
  },
  {
   "type": "Feature",
   "properties": {
    "region_code": "OTA",
    "region_name": "Otago",
    "island": "South",
    "centroid_lat": -45.4,
    "centroid_lon": 170.0
   },
   "geometry": {
    "type": "Polygon",
    "coordinates": [
     [
      [
       167.85,
       -43.75
      ],
      [
       171.25,
       -44.2
      ],
      [
       171.15,
       -45.5
      ],
      [
       170.55,
       -46.65
      ],
      [
       168.45,
       -46.6
      ],
      [
       167.85,
       -45.4
      ],
      [
       167.85,
       -43.75
      ]
     ]
    ]
   }
  },
  {
   "type": "Feature",
   "properties": {
    "region_code": "STL",
    "region_name": "Southland",
    "island": "South",
    "centroid_lat": -46.2,
    "centroid_lon": 168.3
   },
   "geometry": {
    "type": "Polygon",
    "coordinates": [
     [
      [
       166.55,
       -45.5
      ],
      [
       169.3,
       -45.45
      ],
      [
       169.35,
       -46.65
      ],
      [
       168.5,
       -47.3
      ],
      [
       167.4,
       -47.3
      ],
      [
       166.55,
       -46.55
      ],
      [
       166.55,
       -45.5
      ]
     ]
    ]
   }
  }
 ]
}